#dP2021  7  8  0  0  0.00000000      96 __u+U ITR00 EXT  IAC
## 2165 345600.00000000   900.00000000 59403 0.0000000000000
+  117   C06C07C08C09C10C11C12C13C14C16C19C20C21C22C23C24C25
+        C26C27C28C29C30C32C33C34C35C36C37C38C39C40C41C42C43
+        C44C45C46E01E02E03E04E05E07E08E09E11E12E13E14E15E18
+        E19E21E24E25E26E27E30E31E33E36G01G02G03G04G05G06G07
+        G08G09G10G11G12G13G14G15G16G17G18G19G20G21G22G23G24
+        G25G26G27G28G29G30G31G32J01J02J03R01R02R03R04R05R07
+        R08R09R11R12R13R14R15R16R17R18R19R20R21R22R24  0  0
++        11  9 11  9 12 10  8 11  9 11 10  7  7  9  8  8  8
++         7  8  8  8  8  8  9  8  8  7  9 10  9 10  9  9  9
++         9  8  7  8  7  9  6  7 10  8  8  9  8  7  7  8  7
++         8  8  7  7  8  7  7  9  9  7  6  7  7  8  8  7  8
++         8  7  8  9  8  7  8  8  9  8  5  8  7  7  8  9  7
++         7  8  8  6  9  7  7  7  9 10 11  9 10  8  8 10  8
++         9 10  9  8  9  9  9  8  7  7  8  9  8  9  8  0  0
%c M  cc GPS ccc cccc cccc cccc cccc ccccc ccccc ccccc ccccc
%c cc cc ccc ccc cccc cccc cccc cccc ccccc ccccc ccccc ccccc
%f  0.0000000  0.000000000  0.00000000000  0.000000000000000
%f  0.0000000  0.000000000  0.00000000000  0.000000000000000
%i    0    0    0    0      0      0      0      0         0
%i    0    0    0    0      0      0      0      0         0
/* IAC                                ULTRA-RAPID PREDICTION
/* S/V CLOCKS ARE ALIGNED TO GNSS TIME                      
/* G:C1WC2W R:C1PC2P E:C1XC5X C:C2IC6I J:C1CC2S             
/* PCV:IGS14_2163 OL/AL:FES2004  NONE     YN ORB:CoN CLK:CoN
*  2021 07 08 16 45  0.00000000
PC06 -18181.920120  22175.115388  31244.590741    599.279455
PC07 -18570.935308  38195.615590    207.412786    143.307561
PC08  -3448.172638  28922.365786 -30206.758626   -901.941833
PC09  -1628.951124  24635.574786  34494.036198    389.241683
PC10  -8896.736380  39880.132225 -11121.198027    -20.945487
PC11  21596.963921  -7868.081048  15847.351294    445.842158
PC12  27664.573575   3486.180352   -712.126700    818.116890
PC13   5808.556712  35585.328675 -21558.816795    329.163427
PC14  19486.270739 -18429.414912   7614.809119    825.422460
PC16 -16006.154723  22274.239930  32099.881074   -930.450617
PC19 -14952.818169  23501.523288   1915.114918    901.570573
PC20 -20661.944668  12093.299155 -14352.087172   -851.039334
PC21  14240.042059   7266.672470  22888.925632   -935.258529
PC22   -453.712071  21675.847679  17592.019550   -948.432058
PC23  -8370.632737 -26261.493062  -4334.987237   -963.397613
PC24  16925.935511  -1042.480114 -22159.517751   -929.437448
PC25   5075.663818 -20171.926445 -18612.707497   -888.961781
PC26  18290.076907  16438.111009 -13165.707305    881.629453
PC27 -24486.722990  -9355.488726   9529.681582    561.089217
PC28  -7951.748119 -15860.870902  21539.162421    -53.000631
PC29 -12717.852149  13543.921523 -20833.438655    416.770344
PC30 -26680.193958   3245.519178  -7483.132987    473.386445
PC32 -14305.595308  -7139.549727 -22857.077929   -924.230810
PC33  14879.797998 -23524.837068  -1794.369053   -941.277369
PC34  26442.768789  -3673.199077   8149.512480   -632.656502
PC35   8094.913906  15694.869935 -21624.665340   -196.625052
PC36  -5849.852423  19759.756246  18849.318821   -731.460414
PC37 -17710.854634 -17640.209804  12442.422435   -866.690099
PC38  -3643.122456  30841.748110 -28436.107141    160.396321
PC39 -13639.417967  23389.643186  32300.349362     32.272208
PC40 -16651.147687  37713.340091  -9198.136633    178.592884
PC41    659.680208 -21831.004469 -17320.510610   -956.853313
PC42  20668.446088 -11291.457941  14996.292638   -917.832942
PC43  13376.170539 -13371.362939  20513.987383   -812.171127
PC44  24691.671862   8711.815552  -9709.521935    279.241801
PC45   8516.911295  26227.351182   4240.461858    488.127669
PC46 -16459.411754   2155.663551  22447.295917    188.269972
PE01   8160.563462  24649.356070 -14209.039216  -1145.850110
PE02  -8242.759493 -24563.905735  14322.773313    231.520372
PE03 -10627.865108 -13659.473009 -24011.026085   -450.478758
PE04  25335.929172   -728.089221  15294.790196   -809.066598
PE05  10591.079856 -20278.715781 -18772.322684   -266.783257
PE07 -25380.263218  15012.843201   2674.781330   -559.259460
PE08 -25446.801571   1228.329534 -15078.844102   5973.531261
PE09  25232.912501 -15191.730584  -2837.372273   5607.224882
PE11  18155.815113  -5908.369656  22608.361145   5747.324207
PE12  26409.560736  10489.409214   8310.809626   5121.116565
PE13 -18422.762648   5573.747845 -22489.541409    418.759040
PE14  -6745.039109 -13848.642230  18205.054030  -1493.300893
PE15 -26423.557312 -10384.882367  -8371.051381    804.565054
PE18   2705.375663  20389.195279 -24837.155544  -1636.395431
PE19   8189.005639  14864.599691  24261.437838    321.834443
PE21  -3845.682763  29164.613396   3310.735840   -675.103485
PE24  14615.522479 -16079.988748 -20114.950690   -997.052213
PE25   3969.631889 -29121.406218  -3498.027606   -539.369149
PE26   1148.385627  18695.284842 -22922.620651   1602.589446
PE27 -14204.392962  17000.393069  19637.438338    -71.280807
PE30 -15975.780924  -6336.666779  24095.899305   2800.309456
PE31  16128.766436   5063.473293 -24287.800103   -483.035870
PE33  18848.434186  20194.766495 -10644.777042   -467.981077
PE36   -394.174124 -18205.108388  23330.858168   -231.673969
PG01  21594.640903  13162.741443   8398.922697    634.387111
PG02 -10173.652904 -20688.208528  13786.037057   -618.158084
PG03  13507.689588   7185.052549  21628.757361   -214.597801
PG04  23725.753586   2344.496489  11779.823970   -201.921723
PG05  -8087.065629 -19129.917717 -16616.822980    -47.306734
PG06    475.795185 -17734.049589  19804.549867     37.258821
PG07  19041.837660    173.346276 -18353.202582    197.610759
PG08  16516.978598   8576.656073 -19076.156887    -28.043718
PG09  25575.064168  -7082.675772   1326.573016   -354.665404
PG10 -11671.404770  21787.279364  -9230.331866   -158.013514
PG11  -8293.685688 -21828.361047  12641.244880     10.450389
PG12 -12488.540386  -8894.458525  21453.127611    -65.832929
PG13  -7998.256462 -13696.370063 -21459.369087    155.065555
PG14  12711.918943 -21523.813512  -8924.371816     52.123995
PG15 -17817.557323  -7555.236295 -18701.331134   -136.944962
PG16   1568.946756  23006.474207 -13008.350790   -353.860080
PG17  19385.108986 -13280.426249  12811.011020    470.661901
PG18 -16957.606629   2827.381871 -20279.521964    342.307995
PG19  11769.275342 -14705.799871  18384.701833     23.664825
PG20  -3830.533878 -25096.301888  -8254.414784    520.385509
PG21  21436.542203  16126.396782   1518.345319    130.013227
PG22  11506.104400  15694.763576  18346.030183   -568.676116
PG23 -15277.464807  12341.786580 -17876.352981     87.299037
PG24 -21904.565964 -15028.308332   3117.510573    166.290421
PG25 -15807.262876   4295.388287  20588.218962    169.926486
PG26  -3649.997608  26095.221015  -1853.118333    108.120448
PG27   5486.283446  13980.353428 -22096.393332   -159.726164
PG28  10010.417816 -24552.242158  -2252.686284    541.325889
PG29 -26162.591139   4008.071420   2511.600842   -376.940357
PG30  10141.210072 -12038.948398 -21316.481032   -448.414288
PG31    474.541393  18861.557504  18414.215830   -127.503116
PG32 -16336.158867  15403.634162  14168.374027     15.101475
PJ01 -29308.529098  30419.803692   4077.846187   -411.376476
PJ02 -27375.261592  25393.856240  24558.048141     -0.665423
PJ03 -29652.295511  18053.507761 -19201.129010    -10.432195
PR01  -2682.708185  16097.059394  19614.648783     82.010557
PR02  13814.725220    835.299128  21483.894766    485.281679
PR03  19896.902388 -12973.496065   9411.456917     39.098418
PR04  14789.394524 -19255.204684  -7800.882085     94.875211
PR05   1536.754204 -14849.959611 -20675.650759     74.974479
PR07 -19858.753294  13389.446156  -8675.898998    -42.112271
PR08 -14622.037794  19327.610022   7983.450765    -59.876718
PR09 -12566.568435 -13253.153969  17791.055924      1.880897
PR11  -1983.019342  20406.538989  15200.593477    -19.686770
PR12   7232.686110  24358.272822  -2127.890075    243.640413
PR13  12313.780329  14060.025195 -17373.136411    -57.438737
PR14  10047.963247  -5213.805495 -22841.305118     66.226119
PR15   2029.203580 -20737.947733 -14685.817736    102.796246
PR16  -8326.072327 -23961.284899   3240.223313    -17.587099
PR17  21910.341644    230.799829  13024.879947    439.330975
PR18   8517.311152  -8080.054291  22658.907126     82.724675
PR19  -8311.992584 -12377.819812  20691.017194   -150.761229
PR20 -23037.908549  -9791.536706   4798.642651    -52.168695
PR21 -21285.687768    309.307564 -14083.308152   -222.365959
PR22  -7353.228671   8462.603688 -22923.409399   -121.643523
PR24  23432.007969   9215.447339  -4023.191951     49.639946
EOF
